STARLETTE               
1 07646U 75010A   26066.15892245 -.00000124  00000+0  16599-4 0  9993
2 07646  49.8227 147.3199 0205563  85.9847 276.4514 13.82349098580428
LAGEOS 1                
1 08820U 76039A   26065.36253940 -.00000005  00000+0  00000+0 0  9998
2 08820 109.8179 144.1429 0044660 324.2984  62.3521  6.38664890906578
AJISAI (EGS)            
1 16908U 86061A   26066.14080319 -.00000089  00000+0  60347-4 0  9992
2 16908  50.0080 101.1859 0011257 280.4363 127.0737 12.44515641467687
COSMOS 1989 (ETALON 1)  
1 19751U 89001C   26065.62096231 -.00000001  00000+0  00000+0 0  9999
2 19751  64.8856  75.7019 0023416 217.5756 242.2717  2.13156097289187
COSMOS 2024 (ETALON 2)  
1 20026U 89039C   26065.48516983 -.00000055  00000+0  00000+0 0  9991
2 20026  64.9963 314.0759 0020466 213.3998 282.0420  2.13204610286318
LAGEOS 2                
1 22195U 92070B   26065.52897360 -.00000009  00000+0  00000+0 0  9994
2 22195  52.6791 331.5402 0137767 142.4403  82.1122  6.47293334788772
STELLA                  
1 22824U 93061B   26066.13456595 -.00000012  00000+0  13359-4 0  9993
2 22824  98.7846 129.9679 0006600 164.7163 252.0397 14.27467520690219
LARETS                  
1 27944U 03042F   26066.13274470  .00000107  00000+0  30127-4 0  9997
2 27944  98.4011 226.2629 0012225   0.5943 359.5271 14.63847746198430
LARES                   
1 38077U 12006A   26066.19294670 -.00000038  00000+0  23014-5 0  9998
2 38077  69.4878 106.4640 0007450 152.9628 207.1788 12.54932184644274
LARES-2                 
1 53105U 22080A   26065.02398958 -.00000028  00000+0  00000+0 0  9998
2 53105  70.1755 340.7064 0005309 356.7815   3.2821  6.38965015 85076
